COMMENT,ORIGINATOR,NORAD_CAT_ID,OBJECT_NAME,OBJECT_TYPE,CLASSIFICATION_TYPE,INTLDES,EPOCH,EPOCH_MICROSECONDS,MEAN_MOTION,ECCENTRICITY,INCLINATION,RA_OF_ASC_NODE,ARG_OF_PERICENTER,MEAN_ANOMALY,EPHEMERIS_TYPE,ELEMENT_SET_NO,REV_AT_EPOCH,BSTAR,MEAN_MOTION_DOT,MEAN_MOTION_DDOT,FILE,TLE_LINE0,TLE_LINE1,TLE_LINE2,OBJECT_ID,OBJECT_NUMBER,SEMIMAJOR_AXIS,PERIOD,APOGEE,PERIGEE,DECAYED
"GENERATED VIA SPACETRACK.ORG API","18 SPCS","56460","STARLINK-6047","PAYLOAD","U","23064N","2023-10-28 20:36:03","960288","14.98332211","0.0002835","70","159.907","271.5713","88.5121","0","999","2636","0.000014672","0.00000082","0","4058085","0 STARLINK-6047","1 56460U 23064N   23301.85837917  .00000082  00000-0  14672-4 0  9997","2 56460  70.0000 159.9070 0002835 271.5713  88.5121 14.98332211 26361","2023-064N","56460","6950.186","96.107","574.021","570.081","0"
"GENERATED VIA SPACETRACK.ORG API","18 SPCS","55771","STARLINK-5591","PAYLOAD","U","23028AG","2023-10-28 21:13:27","382080","14.98329503","0.0002858","70","239.8739","269.8471","90.2361","0","999","3729","-0.00002171","-0.00000352","0","4058258","0 STARLINK-5591","1 55771U 23028AG  23301.88434470 -.00000352  00000-0 -21710-4 0  9994","2 55771  70.0000 239.8739 0002858 269.8471  90.2361 14.98329503 37291","2023-028AG","55771","6950.194","96.107","574.046","570.073","0"
"GENERATED VIA SPACETRACK.ORG API","18 SPCS","55950","STARLINK-5911","PAYLOAD","U","23037AN","2023-10-28 21:38:10","156416","14.98327888","0.0002943","70","279.9367","265.7062","94.3761","0","999","3523","0.0000085895","0.00000009","0","4058258","0 STARLINK-5911","1 55950U 23037AN  23301.90150644  .00000009  00000-0  85895-5 0  9996","2 55950  70.0000 279.9367 0002943 265.7062  94.3761 14.98327888 35233","2023-037AN","55950","6950.199","96.107","574.110","570.019","0"
"GENERATED VIA SPACETRACK.ORG API","18 SPCS","55638","STARLINK-5507","PAYLOAD","U","23021L","2023-10-28 21:55:11","3520","14.98330751","0.0002719","70","219.7795","265.5003","94.5846","0","999","3906","-0.000072365","-0.00000956","0","4058258","0 STARLINK-5507","1 55638U 23021L   23301.91332180 -.00000956  00000-0 -72365-4 0  9990","2 55638  70.0000 219.7795 0002719 265.5003  94.5846 14.98330751 39061","2023-021L","55638","6950.191","96.107","573.945","570.166","0"
"GENERATED VIA SPACETRACK.ORG API","18 SPCS","56460","STARLINK-6047","PAYLOAD","U","23064N","2023-10-28 22:12:12","4416","14.98332438","0.0002774","70","159.7387","271.522","88.5621","0","999","2601","0.000016935","0.00000109","0","4058258","0 STARLINK-6047","1 56460U 23064N   23301.92513894  .00000109  00000-0  16935-4 0  9994","2 56460  70.0000 159.7387 0002774 271.5220  88.5621 14.98332438 26013","2023-064N","56460","6950.185","96.107","573.978","570.122","0"
"GENERATED VIA SPACETRACK.ORG API","18 SPCS","55630","STARLINK-5303","PAYLOAD","U","23021C","2023-10-28 22:19:14","468448","14.98320409","0.0002649","70","219.8394","272.1681","87.9174","0","999","3906","-0.000054685","-0.00000745","0","4058258","0 STARLINK-5303","1 55630U 23021C   23301.93002857 -.00000745  00000-0 -54685-4 0  9990","2 55630  70.0000 219.8394 0002649 272.1681  87.9174 14.98320409 39066","2023-021C","55630","6950.223","96.108","573.929","570.246","0"
"GENERATED VIA SPACETRACK.ORG API","18 SPCS","55289","STARLINK-5320","PAYLOAD","U","23010W","2023-10-28 23:52:20","854848","14.98333741","0.0003385","70","39.7098","261.8691","98.2084","0","999","4373","-0.000083338","-0.00001087","0","4058769","0 STARLINK-5320","1 55289U 23010W   23301.99468582 -.00001087  00000-0 -83338-4 0  9992","2 55289  70.0000  39.7098 0003385 261.8691  98.2084 14.98333741 43737","2023-010W","55289","6950.181","96.107","574.399","569.694","0"
"GENERATED VIA SPACETRACK.ORG API","18 SPCS","55660","STARLINK-5467","PAYLOAD","U","23021AJ","2023-10-29 02:37:08","974560","14.98332559","0.0002877","70","179.5181","268.2677","91.8153","0","999","3977","-0.000085198","-0.00001109","0","4058810","0 STARLINK-5467","1 55660U 23021AJ  23302.10913165 -.00001109  00000-0 -85198-4 0  9994","2 55660  70.0000 179.5181 0002877 268.2677  91.8153 14.98332559 39777","2023-021AJ","55660","6950.185","96.107","574.050","570.050","0"
"GENERATED VIA SPACETRACK.ORG API","18 SPCS","55758","STARLINK-5072","PAYLOAD","U","23028T","2023-10-29 03:44:18","913344","14.98343702","0.0002455","70","259.0964","266.4395","93.6483","0","999","3684","0.000080813","0.00000872","0","4058277","0 STARLINK-5072","1 55758U 23028T   23302.15577446  .00000872  00000-0  80813-4 0  9995","2 55758  70.0000 259.0964 0002455 266.4395  93.6483 14.98343702 36840","2023-028T","55758","6950.151","96.106","573.722","570.309","0"
"GENERATED VIA SPACETRACK.ORG API","18 SPCS","56774","STARLINK-6190","PAYLOAD","U","23078H","2023-10-29 04:16:36","149088","14.98335292","0.0003194","70","19.0591","260.1331","99.9468","0","999","2325","-0.000055146","-0.00000751","0","4058276","0 STARLINK-6190","1 56774U 23078H   23302.17819617 -.00000751  00000-0 -55146-4 0  9999","2 56774  70.0000  19.0591 0003194 260.1331  99.9468 14.98335292 23259","2023-078H","56774","6950.177","96.107","574.261","569.822","0"
"GENERATED VIA SPACETRACK.ORG API","18 SPCS","55634","STARLINK-5500","PAYLOAD","U","23021G","2023-10-29 04:37:44","196960","14.98343021","0.000287","70","219.15","272.2084","87.8746","0","999","3880","0.00018344","0.00002097","0","4058778","0 STARLINK-5500","1 55634U 23021G   23302.19287265  .00002097  00000-0  18344-3 0  9992","2 55634  70.0000 219.1500 0002870 272.2084  87.8746 14.98343021 38806","2023-021G","55634","6950.153","96.106","574.012","570.023","0"
"GENERATED VIA SPACETRACK.ORG API","18 SPCS","55634","STARLINK-5500","PAYLOAD","U","23021G","2023-10-29 04:37:44","196960","14.98343021","0.000287","70","219.15","272.2084","87.8746","0","999","3910","0.00018344","0.00002097","0","4059417","0 STARLINK-5500","1 55634U 23021G   23302.19287265  .00002097  00000-0  18344-3 0  9992","2 55634  70.0000 219.1500 0002870 272.2084  87.8746 14.98343021 39100","2023-021G","55634","6950.153","96.106","574.012","570.023","0"
"GENERATED VIA SPACETRACK.ORG API","18 SPCS","55778","STARLINK-5816","PAYLOAD","U","23028AP","2023-10-29 04:44:03","617376","14.98353931","0.0002427","70","238.96","263.9208","96.1675","0","999","3734","-0.00023127","-0.00002853","0","4058710","0 STARLINK-5816","1 55778U 23028AP  23302.19726409 -.00002853  00000-0 -23127-3 0  9993","2 55778  70.0000 238.9600 0002427 263.9208  96.1675 14.98353931 37341","2023-028AP","55778","6950.119","96.105","573.671","570.297","0"
"GENERATED VIA SPACETRACK.ORG API","18 SPCS","55932","STARLINK-5848","PAYLOAD","U","23037U","2023-10-29 07:44:58","656768","14.98350148","0.000242","70","278.5939","267.5436","92.5446","0","999","3530","-0.00027209","-0.0000334","0","4059417","0 STARLINK-5848","1 55932U 23037U   23302.32290112 -.00003340  00000-0 -27209-3 0  9994","2 55932  70.0000 278.5939 0002420 267.5436  92.5446 14.98350148 35301","2023-037U","55932","6950.131","96.106","573.678","570.314","0"
"GENERATED VIA SPACETRACK.ORG API","18 SPCS","55675","STARLINK-5232","PAYLOAD","U","23021AZ","2023-10-29 09:24:36","922464","14.99138463","0.0002665","70","178.4953","268.7437","91.3417","0","999","4012","-0.000052101","-0.00000728","0","4059417","0 STARLINK-5232","1 55675U 23021AZ  23302.39209401 -.00000728  00000-0 -52101-4 0  9996","2 55675  70.0000 178.4953 0002665 268.7437  91.3417 14.99138463 40120","2023-021AZ","55675","6947.694","96.055","571.410","567.707","0"
"GENERATED VIA SPACETRACK.ORG API","18 SPCS","55667","STARLINK-5456","PAYLOAD","U","23021AR","2023-10-29 09:43:29","833824","14.98350936","0.0002576","70","178.5412","275.119","84.9675","0","999","3982","-0.00037798","-0.00004602","0","4059351","0 STARLINK-5456","1 55667U 23021AR  23302.40520641 -.00004602  00000-0 -37798-3 0  9990","2 55667  70.0000 178.5412 0002576 275.1190  84.9675 14.98350936 39820","2023-021AR","55667","6950.128","96.106","573.784","570.203","0"
"GENERATED VIA SPACETRACK.ORG API","18 SPCS","55667","STARLINK-5456","PAYLOAD","U","23021AR","2023-10-29 09:43:29","833824","14.98350936","0.0002576","70","178.5412","275.119","84.9675","0","999","4012","-0.00037798","-0.00004602","0","4059417","0 STARLINK-5456","1 55667U 23021AR  23302.40520641 -.00004602  00000-0 -37798-3 0  9990","2 55667  70.0000 178.5412 0002576 275.1190  84.9675 14.98350936 40125","2023-021AR","55667","6950.128","96.106","573.784","570.203","0"
"GENERATED VIA SPACETRACK.ORG API","18 SPCS","55407","STARLINK-5019","PAYLOAD","U","23014S","2023-10-29 11:41:59","831520","14.98338612","0.0003186","70","78.4685","270.2861","89.7933","0","999","4196","0.000057649","0.00000595","0","4059075","0 STARLINK-5019","1 55407U 23014S   23302.48749805  .00000595  00000-0  57649-4 0  9990","2 55407  70.0000  78.4685 0003186 270.2861  89.7933 14.98338612 41966","2023-014S","55407","6950.166","96.106","574.246","569.817","0"
"GENERATED VIA SPACETRACK.ORG API","18 SPCS","55404","STARLINK-5607","PAYLOAD","U","23014P","2023-10-29 11:48:00","902304","14.98333241","0.0003248","70","78.4821","271.6995","88.3792","0","999","4196","0.0000057315","-0.00000025","0","4058938","0 STARLINK-5607","1 55404U 23014P   23302.49167711 -.00000025  00000-0  57315-5 0  9998","2 55404  70.0000  78.4821 0003248 271.6995  88.3792 14.98333241 41968","2023-014P","55404","6950.183","96.107","574.305","569.790","0"
"GENERATED VIA SPACETRACK.ORG API","18 SPCS","55407","STARLINK-5019","PAYLOAD","U","23014S","2023-10-29 13:18:07","844544","14.98339346","0.0003187","70","78.2999","270.5356","89.5438","0","999","4291","0.000049834","0.00000502","0","4059417","0 STARLINK-5019","1 55407U 23014S   23302.55425746  .00000502  00000-0  49834-4 0  9998","2 55407  70.0000  78.2999 0003187 270.5356  89.5438 14.98339346 42914","2023-014S","55407","6950.164","96.106","574.244","569.814","0"
